satname,norad_id,inclination_deg,eccentricity,mean_motion_rev_per_day,perigee_km,apogee_km,l1,l2
STARLINK-1283,45389,53.0508,0.0002571,15.40723948,442.2174903046398,445.72541847188586,1 45389U 20019AF  25358.91670139  .00067458  00000+0  16213-2 0  9994,2 45389  53.0508 107.9528 0002571 352.2239  31.0736 15.40723948  5924
STARLINK-1284,45390,53.0552,0.0001519,15.06391894,546.1844375524761,548.2883659919344,1 45390U 20019AG  25358.58181510 -.00000606  00000+0 -21822-4 0  9997,2 45390  53.0552 123.7928 0001519 118.6321 241.4821 15.06391894318687
STARLINK-1297,45395,53.0538,0.0001224,15.06395313,546.3782585337012,548.073587377241,1 45395U 20019AM  25358.61868282 -.00001345  00000+0 -71438-4 0  9993,2 45395  53.0538 123.6260 0001224  87.9238 272.1891 15.06395313317870
STARLINK-1307,45397,53.0552,0.000121,15.06419183,546.3148053684199,547.9907254916543,1 45397U 20019AP  25358.74399277 -.00006421  00000+0 -41237-3 0  9995,2 45397  53.0552 123.0650 0001210  91.9255 268.1873 15.06419183318535
STARLINK-1255,45399,53.0475,0.0001573,15.39739488,445.80546101361597,447.95261105855207,1 45399U 20019AR  25358.66330650  .00016886  00000+0  42947-3 0  9991,2 45399  53.0475 100.2318 0001573  63.6597 296.4568 15.39739488318833
STARLINK-1260,45404,53.0563,0.0001303,15.0639776,546.3160494125195,548.1207970358118,1 45404U 20019AW  25358.74492160 -.00000329  00000+0 -31948-5 0  9990,2 45404  53.0563 113.0538 0001303  87.0444 273.0694 15.06397760318564
STARLINK-1263,45405,53.057,0.0001597,15.06409724,546.0757820338631,548.2877288443497,1 45405U 20019AX  25358.59746044  .00001034  00000+0  88310-4 0  9993,2 45405  53.0570 113.7234 0001597  87.4933 272.6239 15.06409724318547
STARLINK-1265,45406,53.0559,0.0001206,15.06398867,546.3798329674019,548.050227877141,1 45406U 20019AY  25358.60485047 -.00002483  00000+0 -14785-3 0  9994,2 45406  53.0559 113.6873 0001206 122.7143 237.3962 15.06398867318542
STARLINK-1278,45408,53.0505,0.0005596,15.41505899,437.84782357578297,445.480545061273,1 45408U 20019BA  25358.91670139  .00091659  00000+0  21357-2 0  9991,2 45408  53.0505 128.3114 0005596 185.9759 235.4873 15.41505899  5824
STARLINK-1296,45412,53.054,0.0001037,15.06397031,546.5024979215232,547.9388170996908,1 45412U 20019BE  25356.55178693  .00001226  00000+0  10118-3 0  9997,2 45412  53.0540 122.9018 0001037  91.7111 268.3997 15.06397031318235
STARLINK-1298,45413,53.0425,0.0003775,15.64319878,372.6461060198235,377.7448720490438,1 45413U 20019BF  25358.91670139  .00111768  00000+0  11374-2 0  9999,2 45413  53.0425  68.4961 0003775  78.1828 291.3241 15.64319878  5984
STARLINK-1309,45414,53.0584,0.0001382,15.06386874,546.2946987994674,548.2088762603407,1 45414U 20019BG  25358.62328593  .00000055  00000+0  22618-4 0  9993,2 45414  53.0584 113.6080 0001382  95.0152 265.0995 15.06386874318534
STARLINK-1316,45415,53.0557,0.0001255,15.06400859,546.3397943146301,548.0780561418633,1 45415U 20019BH  25358.64908689 -.00002107  00000+0 -12259-3 0  9997,2 45415  53.0557 113.4870 0001255 101.1693 258.9437 15.06400859318574
STARLINK-1318,45416,53.0469,0.0002417,15.71283123,353.6013762391176,356.85628528170673,1 45416U 20019BJ  25358.91670139  .00100309  00000+0  77049-3 0  9993,2 45416  53.0469  57.2127 0002417  10.1647  30.0817 15.71283123  5968
STARLINK-1286,45417,53.0517,0.0002634,15.42993824,435.4840285906239,439.0743898496403,1 45417U 20019BK  25358.74650569  .00071145  00000+0  15841-2 0  9996,2 45417  53.0517 128.9020 0002634 203.8155 156.2728 15.42993824318623
STARLINK-1308,45419,53.0548,0.0001359,15.06393921,546.2890318593754,548.1713466614165,1 45419U 20019BM  25358.81587542 -.00000885  00000+0 -40560-4 0  9999,2 45419  53.0548 142.7365 0001359  96.2034 263.9110 15.06393921318182
STARLINK-1329,45531,53.0541,0.0001012,15.41995003,439.53197909498795,440.9120149559867,1 45531U 20025A   25358.91670139  .00045801  00000+0  10614-2 0  9997,2 45531  53.0541  79.4293 0001012  74.0912 311.5842 15.41995003  5836
STARLINK-1338,45532,53.0555,0.0001244,15.24265302,492.13770810060123,493.8472451143807,1 45532U 20025B   25358.91670139  .01910826  00000+0  69994-1 0  9991,2 45532  53.0555  81.5634 0001244  62.6227 248.5645 15.24265302  5680
STARLINK-1350,45535,53.0746,0.0001722,15.33933994,462.9104276258131,465.2668901427314,1 45535U 20025E   25358.78677230  .00010638  00000+0  33032-3 0  9995,2 45535  53.0746  24.3488 0001722  82.8480 277.2717 15.33933994314651
STARLINK-1362,45538,53.0566,0.0001082,15.06389181,546.4953905117518,547.99404311527,1 45538U 20025H   25358.56240990 -.00001568  00000+0 -86427-4 0  9994,2 45538  53.0566  83.5974 0001082  97.8655 262.2457 15.06389181313770
STARLINK-1368,45540,53.0538,0.0001185,15.06386206,546.4331760702498,548.0744936981164,1 45540U 20025K   25358.23533767  .00000939  00000+0  81960-4 0  9994,2 45540  53.0538  85.3458 0001185  82.2216 277.8907 15.06386206313715
STARLINK-1371,45542,53.0546,0.0001907,15.09915021,535.1408160205956,537.7780430988305,1 45542U 20025M   25358.91670139 -.00006431  00000+0 -37485-3 0  9993,2 45542  53.0546  82.2537 0001907  77.1135 197.0715 15.09915021  5786
STARLINK-1372,45543,53.0518,0.0001678,15.0638351,546.1000159056921,548.4241798429402,1 45543U 20025N   25358.64079190 -.00004021  00000+0 -25131-3 0  9992,2 45543  53.0518  83.5280 0001678  80.8784 279.2395 15.06383510312878
STARLINK-1373,45544,53.0559,0.0001405,15.06425591,546.1601258666497,548.1061267721461,1 45544U 20025P   25358.65918862  .00002082  00000+0  15852-3 0  9994,2 45544  53.0559  83.4392 0001405 102.9377 257.1769 15.06425591313786
STARLINK-1294,45551,53.045,0.0001894,15.70363777,356.58074281852896,359.13233717147887,1 45551U 20025W   25358.26897405  .00113556  00000+0  90437-3 0  9999,2 45551  53.0450 355.8443 0001894  99.0099 261.1132 15.70363777314986
STARLINK-1325,45554,53.0494,0.001028,15.82253736,317.1788631521913,330.9585981343944,1 45554U 20025Z   25358.91670139  .00266965  00000+0  12295-2 0  9995,2 45554  53.0494 342.8670 0010280  65.2632  85.8751 15.82253736  5927
STARLINK-1327,45555,53.0543,0.0002127,15.12996832,525.5979786018906,528.5354522624357,1 45555U 20025AA  25358.91670139  .01613075  00000+0  82952-1 0  9991,2 45555  53.0543  62.1838 0002127  87.3811  73.3712 15.12996832  5693
STARLINK-1356,45564,53.0558,0.0001346,15.06385786,546.3229643639961,548.1872799232779,1 45564U 20025AK  25358.56890977 -.00005297  00000+0 -33711-3 0  9999,2 45564  53.0558  63.8490 0001346  85.9856 274.1287 15.06385786314049
STARLINK-1357,45565,53.0589,4.38e-05,15.41117712,442.51059011166126,443.1081050117091,1 45565U 20025AL  25358.82718483  .00089804  00000+0  21212-2 0  9996,2 45565  53.0589  36.1604 0000438 210.1856 149.9123 15.41117712314462
STARLINK-1361,45567,53.0587,0.0001671,15.06407551,546.0311934305937,548.3456371843904,1 45567U 20025AN  25358.58734101  .00000539  00000+0  55047-4 0  9999,2 45567  53.0587  63.7646 0001671  96.2402 263.8777 15.06407551314054
STARLINK-1363,45568,53.0488,0.000699,15.51921853,406.369521775925,415.8608963642055,1 45568U 20025AP  25358.83558731  .00112527  00000+0  18235-2 0  9998,2 45568  53.0488  44.9049 0006990 319.4440  40.6047 15.51921853314332
STARLINK-1366,45569,53.0488,0.0007048,15.48656192,415.86442744557735,425.44800636412583,1 45569U 20025AQ  25358.29804086  .00099249  00000+0  18094-2 0  9994,2 45569  53.0488  47.8381 0007048 327.0937  32.9630 15.48656192314244
STARLINK-1376,45570,53.0561,0.0001229,15.06399152,546.3630312801733,548.0652825945499,1 45570U 20025AR  25358.58366130 -.00000121  00000+0  10762-4 0  9999,2 45570  53.0561  63.7848 0001229  84.3322 275.7807 15.06399152314044
STARLINK-1320,45572,53.0548,0.0004334,15.51857562,408.360176575492,414.24526292457085,1 45572U 20025AT  25358.91670139  .00174116  00000+0  28035-2 0  9990,2 45572  53.0548 350.1435 0004334  99.9945 166.1822 15.51857562  5950
STARLINK-1321,45573,53.0545,0.0001581,15.14377419,521.7782610949962,523.9603592902795,1 45573U 20025AU  25358.91670139  .01567235  00000+0  76590-1 0  9998,2 45573  53.0545  52.0967 0001581  97.8698  84.2022 15.14377419  5734
STARLINK-1328,45576,53.0429,4.63e-05,15.94160253,290.3465146463086,290.96404481141144,1 45576U 20025AX  25358.91670139  .00449137  91110-4  11889-2 0  9998,2 45576  53.0429 359.8546 0000463  57.3005 267.0747 15.94160253  6055
STARLINK-1331,45578,53.0556,0.0001207,15.06396789,546.3855084495053,548.0572899670751,1 45578U 20025AZ  25357.48617805 -.00000014  00000+0  17982-4 0  9995,2 45578  53.0556  58.7121 0001207  87.1477 272.9651 15.06396789314030
STARLINK-1333,45580,53.0565,0.0001398,15.06385979,546.286360881214,548.2227003531734,1 45580U 20025BB  25358.55417766 -.00002201  00000+0 -12897-3 0  9991,2 45580  53.0565  63.9138 0001398  96.4559 263.6589 15.06385979314041
STARLINK-1335,45581,53.0559,0.000133,15.06394628,546.3069488455185,548.149095941475,1 45581U 20025BC  25357.43088540 -.00000469  00000+0 -12615-4 0  9995,2 45581  53.0559  58.9621 0001330  91.1401 268.9741 15.06394628314016
STARLINK-1337,45582,53.0552,0.0001361,15.06389374,546.3015809181416,548.1866696604447,1 45582U 20025BD  25358.24916905 -.00000610  00000+0 -22036-4 0  9997,2 45582  53.0552  55.2873 0001361  89.3922 270.7223 15.06389374314131
STARLINK-1347,45586,53.0513,2.6e-05,15.39797013,446.53160594829023,446.8864979429918,1 45586U 20025BH  25358.91670139  .00134332  00000+0  32899-2 0  9994,2 45586  53.0513  26.5720 0000260 185.2712 123.1733 15.39797013  5935
STARLINK-1360,45588,53.0382,0.0004933,15.96878012,279.80064854476313,286.3726117782817,1 45588U 20025BK  25358.91670139  .00636617  18422-3  14512-2 0  9992,2 45588  53.0382 285.9540 0004933 118.6596 327.2809 15.96878012  6072
STARLINK-1364,45589,53.0551,0.0001334,15.06397223,546.2962264233793,548.1439116894035,1 45589U 20025BL  25358.18649198 -.00002137  00000+0 -12462-3 0  9991,2 45589  53.0551  55.5663 0001334  94.7581 265.3561 15.06397223314124
